LEMUR-2-ANDIS           
1 42838U 17042P   26068.55941107  .00023598  00000+0  79875-3 0  9998
2 42838  97.3659 249.7950 0009101   4.3248 355.8070 15.30557934473198
STARLINK-36045          
1 66811U 25278W   26068.46201342  .00033175  00000+0  12094-2 0  9996
2 66811  43.0003 115.7060 0001866 259.8192 100.2449 15.27586217 15179
